{
  "norad_id": 60485,
  "name": "TOMORROW-S2",
  "history": [
    {
      "epoch": "2026-04-13T04:31:15.474720Z",
      "apogee_km": 473.25655741898936,
      "perigee_km": 467.4579373397337,
      "latitude_deg": 1.4339640636787247e-05,
      "longitude_deg": -84.85911845100789,
      "height_km": 475.3000468884795,
      "semi_major_axis_km": 6848.494247379362,
      "eccentricity": 0.00042335,
      "inclination_deg": 97.3825,
      "raan_deg": 184.3381,
      "arg_perigee_deg": 129.417,
      "mean_anomaly_deg": 230.7447,
      "mean_motion_rev_day": 15.31828407
    },
    {
      "epoch": "2026-04-14T11:52:34.347936Z",
      "apogee_km": 473.2742028653638,
      "perigee_km": 467.37274750468623,
      "latitude_deg": -6.939306560269926e-05,
      "longitude_deg": 164.8263411079853,
      "height_km": 475.1740457780808,
      "semi_major_axis_km": 6848.460475185025,
      "eccentricity": 0.00043086,
      "inclination_deg": 97.3826,
      "raan_deg": 185.6399,
      "arg_perigee_deg": 126.3537,
      "mean_anomaly_deg": 233.8102,
      "mean_motion_rev_day": 15.31839738
    },
    {
      "epoch": "2026-04-15T19:13:52.432320Z",
      "apogee_km": 473.2771809493497,
      "perigee_km": 467.30261332428745,
      "latitude_deg": 6.569917756699973e-05,
      "longitude_deg": 54.515269411193266,
      "height_km": 475.03537464682864,
      "semi_major_axis_km": 6848.426897136818,
      "eccentricity": 0.0004362,
      "inclination_deg": 97.3827,
      "raan_deg": 186.9419,
      "arg_perigee_deg": 123.3985,
      "mean_anomaly_deg": 236.7675,
      "mean_motion_rev_day": 15.31851004
    },
    {
      "epoch": "2026-04-16T04:38:15.721728Z",
      "apogee_km": 473.2851005915336,
      "perigee_km": 467.27670962666525,
      "latitude_deg": -1.7118905166608582e-05,
      "longitude_deg": -86.57746832061659,
      "height_km": 474.99430009332565,
      "semi_major_axis_km": 6848.417905109099,
      "eccentricity": 0.00043867,
      "inclination_deg": 97.3827,
      "raan_deg": 187.3325,
      "arg_perigee_deg": 122.4604,
      "mean_anomaly_deg": 237.7062,
      "mean_motion_rev_day": 15.31854021
    },
    {
      "epoch": "2026-04-17T18:15:48.171744Z",
      "apogee_km": 473.2871794911498,
      "perigee_km": 467.19048139185725,
      "latitude_deg": -2.4364192184313208e-05,
      "longitude_deg": 69.05449482581076,
      "height_km": 474.80502303226166,
      "semi_major_axis_km": 6848.375830441503,
      "eccentricity": 0.00044512,
      "inclination_deg": 97.3827,
      "raan_deg": 188.8949,
      "arg_perigee_deg": 118.737,
      "mean_anomaly_deg": 241.4319,
      "mean_motion_rev_day": 15.31868138
    },
    {
      "epoch": "2026-04-18T11:30:29.998368Z",
      "apogee_km": 473.2604357627597,
      "perigee_km": 467.15417804495155,
      "latitude_deg": 4.6673538578056005e-05,
      "longitude_deg": 170.38798333868718,
      "height_km": 474.70131300657016,
      "semi_major_axis_km": 6848.344306903856,
      "eccentricity": 0.00044582,
      "inclination_deg": 97.3826,
      "raan_deg": 189.6109,
      "arg_perigee_deg": 117.1576,
      "mean_anomaly_deg": 243.0121,
      "mean_motion_rev_day": 15.31878715
    },
    {
      "epoch": "2026-04-19T17:17:41.549856Z",
      "apogee_km": 473.24087948937904,
      "perigee_km": 467.0883653118135,
      "latitude_deg": 1.844326864896285e-05,
      "longitude_deg": 83.60346505028888,
      "height_km": 474.5344311770762,
      "semi_major_axis_km": 6848.301622400596,
      "eccentricity": 0.0004492,
      "inclination_deg": 97.3822,
      "raan_deg": 190.8478,
      "arg_perigee_deg": 114.3755,
      "mean_anomaly_deg": 245.7956,
      "mean_motion_rev_day": 15.31893037
    },
    {
      "epoch": "2026-04-20T12:06:26.142336Z",
      "apogee_km": 473.23912280735203,
      "perigee_km": 467.03869379997286,
      "latitude_deg": -1.017910056171817e-05,
      "longitude_deg": 161.4262679983514,
      "height_km": 474.42678010000117,
      "semi_major_axis_km": 6848.275908303662,
      "eccentricity": 0.0004527,
      "inclination_deg": 97.382,
      "raan_deg": 191.629,
      "arg_perigee_deg": 112.5292,
      "mean_anomaly_deg": 247.6429,
      "mean_motion_rev_day": 15.31901665
    },
    {
      "epoch": "2026-04-21T19:27:39.314016Z",
      "apogee_km": 473.1915149929091,
      "perigee_km": 466.9733317564851,
      "latitude_deg": -8.550970526774741e-06,
      "longitude_deg": 51.13583355724963,
      "height_km": 474.2238154914246,
      "semi_major_axis_km": 6848.219423374697,
      "eccentricity": 0.000454,
      "inclination_deg": 97.3816,
      "raan_deg": 192.9311,
      "arg_perigee_deg": 109.5731,
      "mean_anomaly_deg": 250.6001,
      "mean_motion_rev_day": 15.31920618
    },
    {
      "epoch": "2026-04-22T17:24:29.828736Z",
      "apogee_km": 473.1848717263347,
      "perigee_km": 466.9228859867071,
      "latitude_deg": -5.5265668311572024e-05,
      "longitude_deg": 81.93551305714988,
      "height_km": 474.094797136507,
      "semi_major_axis_km": 6848.190878856521,
      "eccentricity": 0.0004572,
      "inclination_deg": 97.3816,
      "raan_deg": 193.8426,
      "arg_perigee_deg": 107.4955,
      "mean_anomaly_deg": 252.6786,
      "mean_motion_rev_day": 15.31930196
    },
    {
      "epoch": "2026-04-23T10:39:09.075456Z",
      "apogee_km": 473.1647700231688,
      "perigee_km": 466.88527937300114,
      "latitude_deg": 6.69656239886647e-05,
      "longitude_deg": -176.720027721345,
      "height_km": 473.98062913555174,
      "semi_major_axis_km": 6848.162024698085,
      "eccentricity": 0.00045848,
      "inclination_deg": 97.3816,
      "raan_deg": 194.5588,
      "arg_perigee_deg": 105.8228,
      "mean_anomaly_deg": 254.352,
      "mean_motion_rev_day": 15.31939878
    },
    {
      "epoch": "2026-04-24T19:34:22.981728Z",
      "apogee_km": 473.0921568505473,
      "perigee_km": 466.8453147983282,
      "latitude_deg": -4.153225865357473e-05,
      "longitude_deg": 49.487243627148274,
      "height_km": 473.7618317859929,
      "semi_major_axis_km": 6848.105735824437,
      "eccentricity": 0.0004561,
      "inclination_deg": 97.3817,
      "raan_deg": 195.926,
      "arg_perigee_deg": 102.8313,
      "mean_anomaly_deg": 257.3438,
      "mean_motion_rev_day": 15.31958766
    },
    {
      "epoch": "2026-04-25T19:05:14.746848Z",
      "apogee_km": 473.0590963602817,
      "perigee_km": 466.7780597840747,
      "latitude_deg": -2.4514214694855504e-05,
      "longitude_deg": 56.78235198340979,
      "height_km": 473.5985475885428,
      "semi_major_axis_km": 6848.055578072178,
      "eccentricity": 0.0004586,
      "inclination_deg": 97.3818,
      "raan_deg": 196.9025,
      "arg_perigee_deg": 100.6549,
      "mean_anomaly_deg": 259.5209,
      "mean_motion_rev_day": 15.31975597
    },
    {
      "epoch": "2026-04-26T18:36:05.517504Z",
      "apogee_km": 472.9968741109533,
      "perigee_km": 466.719317006854,
      "latitude_deg": -4.63406485620618e-05,
      "longitude_deg": 64.08162091997919,
      "height_km": 473.41145889708883,
      "semi_major_axis_km": 6847.995095558904,
      "eccentricity": 0.00045835,
      "inclination_deg": 97.382,
      "raan_deg": 197.879,
      "arg_perigee_deg": 98.3187,
      "mean_anomaly_deg": 261.8574,
      "mean_motion_rev_day": 15.31995893
    },
    {
      "epoch": "2026-04-27T18:06:55.278144Z",
      "apogee_km": 472.927958675029,
      "perigee_km": 466.69221805636334,
      "latitude_deg": -3.675549401873205e-05,
      "longitude_deg": 71.38500605826347,
      "height_km": 473.24868807579594,
      "semi_major_axis_km": 6847.947088365696,
      "eccentricity": 0.0004553,
      "inclination_deg": 97.3821,
      "raan_deg": 198.8554,
      "arg_perigee_deg": 96.2483,
      "mean_anomaly_deg": 263.9277,
      "mean_motion_rev_day": 15.32012003
    },
    {
      "epoch": "2026-04-28T19:11:47.347584Z",
      "apogee_km": 472.86045643831494,
      "perigee_km": 466.6603701203321,
      "latitude_deg": -2.460601369120044e-05,
      "longitude_deg": 55.17960383680212,
      "height_km": 473.0713035689369,
      "semi_major_axis_km": 6847.897413279323,
      "eccentricity": 0.0004527,
      "inclination_deg": 97.3822,
      "raan_deg": 199.897,
      "arg_perigee_deg": 93.9143,
      "mean_anomaly_deg": 266.2616,
      "mean_motion_rev_day": 15.32028673
    },
    {
      "epoch": "2026-04-29T18:42:35.338752Z",
      "apogee_km": 472.8028201569741,
      "perigee_km": 466.6246892061008,
      "latitude_deg": -3.886160113145568e-05,
      "longitude_deg": 62.49048462810633,
      "height_km": 472.89946068745314,
      "semi_major_axis_km": 6847.850754681537,
      "eccentricity": 0.0004511,
      "inclination_deg": 97.3823,
      "raan_deg": 200.8735,
      "arg_perigee_deg": 91.6033,
      "mean_anomaly_deg": 268.5725,
      "mean_motion_rev_day": 15.32044331
    },
    {
      "epoch": "2026-04-30T11:57:09.998496Z",
      "apogee_km": 472.7558781256803,
      "perigee_km": 466.6043470570967,
      "latitude_deg": -3.4625860946839375e-05,
      "longitude_deg": 163.85402505815597,
      "height_km": 472.7773380098516,
      "semi_major_axis_km": 6847.817112591388,
      "eccentricity": 0.00044916,
      "inclination_deg": 97.3823,
      "raan_deg": 201.5896,
      "arg_perigee_deg": 89.9612,
      "mean_anomaly_deg": 270.2144,
      "mean_motion_rev_day": 15.32055621
    },
    {
      "epoch": "2026-05-02T04:42:29.812896Z",
      "apogee_km": 472.6473328703323,
      "perigee_km": 466.52683708318,
      "latitude_deg": -4.428981987172344e-05,
      "longitude_deg": -87.45970478736123,
      "height_km": 472.4715745160163,
      "semi_major_axis_km": 6847.724084976756,
      "eccentricity": 0.0004469,
      "inclination_deg": 97.382,
      "raan_deg": 203.2822,
      "arg_perigee_deg": 85.9733,
      "mean_anomaly_deg": 274.2019,
      "mean_motion_rev_day": 15.32086841
    }
  ]
}